OBJECT_NAME,OBJECT_ID,EPOCH,MEAN_MOTION,ECCENTRICITY,INCLINATION,RA_OF_ASC_NODE,ARG_OF_PERICENTER,MEAN_ANOMALY,EPHEMERIS_TYPE,CLASSIFICATION_TYPE,NORAD_CAT_ID,ELEMENT_SET_NO,REV_AT_EPOCH,BSTAR,MEAN_MOTION_DOT,MEAN_MOTION_DDOT
DONGPO 08,2022-167E,2026-06-28T14:41:51.590688,15.33871462,.00092649,97.6863,348.2549,124.2482,235.9639,0,U,54686,999,19707,.31432373E-3,.1023E-3,0
DONGPO 10,2022-167H,2026-06-28T14:42:44.074368,15.34683546,.00061292,97.6943,350.2341,78.1892,282.0038,0,U,54689,999,19711,.31082017E-3,.10371E-3,0
JILIN-1 GAOFEN 03D50,2022-167J,2026-06-28T16:04:29.664192,15.34740030,.00064246,97.6832,347.9836,72.8368,287.3577,0,U,54690,999,19711,.31151805E-3,.10414E-3,0
JILIN-1 GAOFEN 03D47,2022-167L,2026-06-28T14:25:08.840064,15.34034706,.00087805,97.6930,349.6465,81.5658,278.6579,0,U,54692,999,19709,.29897301E-3,.9774E-4,0
JILIN-1 GAOFEN 03D49,2022-167N,2026-06-28T15:44:39.147360,15.37673242,.00067775,97.6807,350.2925,97.7176,262.4838,0,U,54694,999,19725,.31277962E-3,.11494E-3,0
JILIN-1 GAOFEN 03D48,2022-167P,2026-06-28T16:05:00.844224,15.35462420,.00074615,97.6879,349.6755,81.3967,278.8120,0,U,54695,999,19715,.30758342E-3,.10524E-3,0
SHIYAN-20A (SY-20A),2022-169A,2026-06-28T15:12:48.230784,14.29585882,.00056284,59.9949,202.6138,183.8572,176.2421,0,U,54699,999,18499,.43183906E-4,-.26E-6,0
SHIYAN-20B (SY-20B),2022-169B,2026-06-28T15:18:55.618272,14.29544537,.00093681,59.9951,202.6687,220.3054,139.7288,0,U,54700,999,18499,.43864929E-4,-.24E-6,0
GALAXY 35 (G-35),2022-170A,2026-06-28T13:43:39.162720,1.00269209,.00022187,0.0215,30.4348,66.7954,292.2379,0,U,54741,999,1300,0,0,0
GALAXY 36 (G-36),2022-170B,2026-06-28T13:44:46.554720,1.00270586,.00028967,0.0190,264.1027,185.7954,303.9635,0,U,54742,999,1288,0,-.174E-5,0
METEOSAT-12 (MTG-I1),2022-170C,2026-06-28T07:19:30.963072,1.00275707,.0003677,0.7506,24.7217,72.3488,288.9025,0,U,54743,999,1308,0,.4E-7,0
YAOGAN-36 04A,2022-171A,2026-06-28T14:24:45.682272,15.21116230,.00063217,34.9884,149.8664,26.3529,333.7506,0,U,54746,999,19686,.20625561E-3,.4668E-4,0
YAOGAN-36 04B,2022-171C,2026-06-28T13:29:48.520896,15.22981340,.00052804,35.0039,123.4141,316.7708,43.2592,0,U,54748,999,19712,.34759445E-3,.8344E-4,0
YAOGAN-36 04C,2022-171E,2026-06-28T05:24:02.928960,15.32720922,.00070963,34.9796,113.0287,235.6661,124.3385,0,U,54750,999,19718,.42146263E-3,.13666E-3,0
SHIYAN-21 (SY-21),2022-172A,2026-06-28T14:49:31.553184,15.27224088,.00278848,35.9853,0.3008,344.8363,15.1533,0,U,54752,999,19743,.24774562E-3,.6782E-4,0
SWOT,2022-173A,2026-06-28T15:14:49.736832,14.00170888,.00002956,77.6102,19.8549,84.7119,275.4066,0,U,54754,999,18075,.15973869E-4,.21E-6,0
O3B MPOWER F1,2022-174A,2026-06-27T14:07:59.151648,5.00114930,.00065159,0.0510,340.7440,127.9958,343.4007,0,U,54755,999,6588,0,-.22E-6,0
O3B MPOWER F2,2022-174B,2026-06-28T07:17:48.569568,5.00115072,.00058363,0.0468,340.5450,112.4778,267.0434,0,U,54756,999,6600,0,-.22E-6,0
STARLINK-5464,2022-175A,2026-06-28T11:45:52.301952,15.08832615,.00004669,53.1595,261.7470,80.0779,280.0265,0,U,54758,999,19671,.75842701E-4,.919E-5,0
STARLINK-5215,2022-175B,2026-06-28T15:00:54.477792,15.09483531,.00011702,53.1628,261.1643,89.2071,270.9054,0,U,54759,999,19673,.48715125E-2,.79512E-3,0
STARLINK-5220,2022-175C,2026-06-28T13:23:14.897184,15.08830452,.00010862,53.1587,266.4371,85.7887,274.3229,0,U,54760,999,19665,.81734029E-4,.1013E-4,0
STARLINK-5202,2022-175D,2026-06-28T13:28:33.117024,15.08830413,.00011395,53.1603,266.4622,89.2335,270.8787,0,U,54761,999,19665,.63226419E-4,.718E-5,0
STARLINK-5214,2022-175E,2026-06-28T14:00:01.000224,15.25401061,.00003781,53.1610,265.2248,74.9342,272.5007,0,U,54762,999,579,.31076604E-2,.80038E-3,0
STARLINK-5191,2022-175F,2026-06-28T14:53:19.844448,15.08826564,.00009625,53.1597,266.1171,87.2333,272.8769,0,U,54763,999,19666,.6251684E-4,.707E-5,0
STARLINK-5458,2022-175G,2026-06-28T12:47:28.310784,15.08841313,.00011381,53.1590,266.2887,111.8585,248.2528,0,U,54764,999,19665,.13675518E-3,.1889E-4,0
STARLINK-5471,2022-175J,2026-06-28T14:32:06.419040,15.08826945,.0001291,53.1595,266.0273,93.2554,266.8586,0,U,54766,999,19666,.41330668E-4,.37E-5,0
STARLINK-5472,2022-175K,2026-06-28T12:51:23.652288,15.08842810,.00011961,53.1590,266.3009,93.3660,266.7469,0,U,54767,999,19665,.17192345E-3,.245E-4,0
STARLINK-5444,2022-175L,2026-06-28T14:00:01.000224,15.29328886,.00011414,53.1612,250.5003,77.3075,145.2012,0,U,54768,999,565,.15985981E-2,.4602E-3,0
STARLINK-5448,2022-175N,2026-06-28T14:00:01.000224,15.26703976,.00009529,53.1583,250.1383,56.5627,352.3413,0,U,54770,999,580,.36962875E-2,.99349E-3,0
