DONGPO 08               
1 54686U 22167E   26179.61240267  .00010230  00000+0  31432-3 0  9991
2 54686  97.6863 348.2549 0009264 124.2482 235.9639 15.33871462197070
DONGPO 10               
1 54689U 22167H   26179.61301012  .00010371  00000+0  31082-3 0  9997
2 54689  97.6943 350.2341 0006129  78.1892 282.0038 15.34683546197110
JILIN-1 GAOFEN 03D50    
1 54690U 22167J   26179.66978778  .00010414  00000+0  31152-3 0  9999
2 54690  97.6832 347.9836 0006424  72.8368 287.3577 15.34740030197116
JILIN-1 GAOFEN 03D47    
1 54692U 22167L   26179.60079676  .00009774  00000+0  29897-3 0  9994
2 54692  97.6930 349.6465 0008780  81.5658 278.6579 15.34034706197098
JILIN-1 GAOFEN 03D49    
1 54694U 22167N   26179.65600865  .00011494  00000+0  31278-3 0  9999
2 54694  97.6807 350.2925 0006777  97.7176 262.4838 15.37673242197254
JILIN-1 GAOFEN 03D48    
1 54695U 22167P   26179.67014866  .00010524  00000+0  30758-3 0  9997
2 54695  97.6879 349.6755 0007461  81.3967 278.8120 15.35462420197151
SHIYAN-20A (SY-20A)     
1 54699U 22169A   26179.63389156 -.00000026  00000+0  43184-4 0  9991
2 54699  59.9949 202.6138 0005628 183.8572 176.2421 14.29585882184993
SHIYAN-20B (SY-20B)     
1 54700U 22169B   26179.63814373 -.00000024  00000+0  43865-4 0  9992
2 54700  59.9951 202.6687 0009368 220.3054 139.7288 14.29544537184992
GALAXY 35 (G-35)        
1 54741U 22170A   26179.57198105  .00000000  00000+0  00000+0 0  9992
2 54741   0.0215  30.4348 0002218  66.7954 292.2379  1.00269209 13000
GALAXY 36 (G-36)        
1 54742U 22170B   26179.57276105 -.00000174  00000+0  00000+0 0  9993
2 54742   0.0190 264.1027 0002896 185.7954 303.9635  1.00270586 12887
METEOSAT-12 (MTG-I1)    
1 54743U 22170C   26179.30521948  .00000004  00000+0  00000+0 0  9994
2 54743   0.7506  24.7217 0003677  72.3488 288.9025  1.00275707 13086
YAOGAN-36 04A           
1 54746U 22171A   26179.60052873  .00004668  00000+0  20626-3 0  9997
2 54746  34.9884 149.8664 0006321  26.3529 333.7506 15.21116230196860
YAOGAN-36 04B           
1 54748U 22171C   26179.56236714  .00008344  00000+0  34759-3 0  9999
2 54748  35.0039 123.4141 0005280 316.7708  43.2592 15.22981340197123
YAOGAN-36 04C           
1 54750U 22171E   26179.22503390  .00013666  00000+0  42146-3 0  9994
2 54750  34.9796 113.0287 0007096 235.6661 124.3385 15.32720922197189
SHIYAN-21 (SY-21)       
1 54752U 22172A   26179.61772631  .00006782  00000+0  24775-3 0  9995
2 54752  35.9853   0.3008 0027884 344.8363  15.1533 15.27224088197430
SWOT                    
1 54754U 22173A   26179.63529788  .00000021  00000+0  15974-4 0  9995
2 54754  77.6102  19.8549 0000295  84.7119 275.4066 14.00170888180750
O3B MPOWER F1           
1 54755U 22174A   26178.58887907 -.00000022  00000+0  00000+0 0  9991
2 54755   0.0510 340.7440 0006515 127.9958 343.4007  5.00114930 65885
O3B MPOWER F2           
1 54756U 22174B   26179.30403437 -.00000022  00000+0  00000+0 0  9995
2 54756   0.0468 340.5450 0005836 112.4778 267.0434  5.00115072 66009
STARLINK-5464           
1 54758U 22175A   26179.49018868  .00000919  00000+0  75843-4 0  9994
2 54758  53.1595 261.7470 0000466  80.0779 280.0265 15.08832615196719
STARLINK-5215           
1 54759U 22175B   26179.62563053  .00079512  00000+0  48715-2 0  9992
2 54759  53.1628 261.1643 0001170  89.2071 270.9054 15.09483531196738
STARLINK-5220           
1 54760U 22175C   26179.55781131  .00001013  00000+0  81734-4 0  9996
2 54760  53.1587 266.4371 0001086  85.7887 274.3229 15.08830452196652
STARLINK-5202           
1 54761U 22175D   26179.56149441  .00000718  00000+0  63226-4 0  9997
2 54761  53.1603 266.4622 0001139  89.2335 270.8787 15.08830413196654
STARLINK-5214           
1 54762U 22175E   26179.58334491  .00080038  00000+0  31077-2 0  9991
2 54762  53.1610 265.2248 0000378  74.9342 272.5007 15.25401061  5797
STARLINK-5191           
1 54763U 22175F   26179.62036857  .00000707  00000+0  62517-4 0  9992
2 54763  53.1597 266.1171 0000962  87.2333 272.8769 15.08826564196668
STARLINK-5458           
1 54764U 22175G   26179.53296656  .00001889  00000+0  13676-3 0  9991
2 54764  53.1590 266.2887 0001138 111.8585 248.2528 15.08841313196654
STARLINK-5471           
1 54766U 22175J   26179.60562985  .00000370  00000+0  41331-4 0  9996
2 54766  53.1595 266.0273 0001291  93.2554 266.8586 15.08826945196662
STARLINK-5472           
1 54767U 22175K   26179.53569042  .00002450  00000+0  17192-3 0  9998
2 54767  53.1590 266.3009 0001196  93.3660 266.7469 15.08842810196658
STARLINK-5444           
1 54768U 22175L   26179.58334491  .00046020  00000+0  15986-2 0  9991
2 54768  53.1612 250.5003 0001141  77.3075 145.2012 15.29328886  5654
STARLINK-5448           
1 54770U 22175N   26179.58334491  .00099349  00000+0  36963-2 0  9994
2 54770  53.1583 250.1383 0000952  56.5627 352.3413 15.26703976  5809
